COSMOS 1892             
1 18421U 87088A   20311.59826738  .00000939  00000-0  45455-4 0  9990
2 18421  82.4975 132.8632 0013647 295.1855  64.7962 15.17284570806103
SL-14 R/B               
1 18749U 88001B   20311.51636793  .00000093  00000-0  84858-5 0  9993
2 18749  82.5167 224.4999 0018492 185.5082 347.3003 14.83232093752922
COSMOS 1933             
1 18958U 88020A   20311.59482812  .00000639  00000-0  44417-4 0  9997
2 18958  82.5299 348.3334 0012287  34.6586 325.5439 15.03788729756445
SL-3 R/B                
1 19046U 88032B   20311.55739665 -.00000425  00000-0 -26921-4 0  9991
2 19046  97.3967 326.2855 0039461  82.0741 278.4961 15.02775106758303
SL-16 R/B               
1 19120U 88039B   20311.49126004 -.00000148  00000-0 -47876-4 0  9995
2 19120  71.0158 228.3892 0019561  89.4206 270.9161 14.19207359681802
COSMOS 1953             
1 19210U 88050A   20311.43424533  .00001043  00000-0  69374-4 0  9990
2 19210  82.5146 271.9913 0013640   1.6444 358.4826 15.06056661743035
SL-8 R/B                
1 19257U 88053B   20311.62315444 -.00000070  00000-0 -14484-4 0  9998
2 19257  74.0465  99.5715 0019813  41.0350  34.9440 14.37489359696438
COSMOS 1975             
1 19573U 88093A   20311.51258644  .00001096  00000-0  75169-4 0  9993
2 19573  82.5222 226.5645 0015483  42.5616 317.6807 15.04964801724871
SL-14 R/B               
1 19574U 88093B   20311.61603529  .00000110  00000-0  10436-4 0  9993
2 19574  82.5334  67.1093 0021454 357.3903  13.0426 14.83342841711941
SL-16 R/B               
1 19650U 88102B   20311.35572171  .00000058  00000-0  53975-4 0  9994
2 19650  70.9969 291.5157 0011974  99.9922 260.2553 14.15792978650967
INTERCOSMOS 24          
1 20261U 89080A   20311.51687385  .00000149  00000-0  34815-4 0  9995
2 20261  82.6010 288.3292 1203648 119.9971 252.6072 12.56141150421833
SL-14 R/B               
1 20262U 89080C   20311.52763040  .00000046  00000-0  12810-4 0  9997
2 20262  82.5945 342.9354 1236286 313.2468  37.1633 12.48948468416729
DELTA 2 R/B(1)          
1 20303U 89085B   20311.16086497  .00002846  00000-0  91730-4 0  9990
2 20303  35.6349 199.9626 0094109 356.0377   3.9599 15.27811375690286
DELTA 1 R/B             
1 20323U 89089B   20311.60507507  .00000082  00000-0  30047-4 0  9999
2 20323  97.1111  74.8567 0072676 142.8903 217.7350 14.48366439613445
ARIANE 40 R/B           
1 20443U 90005H   20311.58806137  .00000013  00000-0  18946-4 0  9998
2 20443  98.5599  13.0628 0009342 280.3429  79.6704 14.38103597612548
DELTA 2 R/B(1)          
1 20453U 90008B   20311.55981946  .00001509  00000-0  87064-4 0  9999
2 20453  35.6227 138.2229 0279142  51.2168 311.3134 14.85776023632343
COSMOS 2058             
1 20465U 90010A   20311.59034876  .00000399  00000-0  31315-4 0  9994
2 20465  82.4867 136.5813 0016879  82.7625 277.5516 14.98067997649600
SL-14 R/B               
1 20466U 90010B   20311.45783082  .00000078  00000-0  69678-5 0  9998
2 20466  82.5003 293.8717 0019316 228.2072 131.7492 14.81397431639756
SL-14 R/B               
1 20511U 90018B   20311.59229596  .00000097  00000-0  96800-5 0  9995
2 20511  82.5246 240.7553 0017908  16.6477 156.1726 14.80053174634138
HST                     
1 20580U 90037B   20311.58253164  .00000594  00000-0  25138-4 0  9996
2 20580  28.4693  99.5614 0002634 178.5088 268.8348 15.09466967477443
SL-16 R/B               
1 20625U 90046B   20311.56084896 -.00000178  00000-0 -67468-4 0  9990
2 20625  71.0003  69.9185 0013573  15.9363 344.2184 14.14663445572718
COSMOS 2084             
1 20663U 90055A   20311.59705875  .00000068  00000-0  24609-4 0  9998
2 20663  62.7961  53.5787 0037078 320.7366  39.1040 14.92132939644562
SL-6 R/B(2)             
1 20666U 90055D   20311.49175927  .00000075  00000-0  25271-4 0  9993
2 20666  62.7860 330.0143 0066273   7.0151 353.1854 14.92380271646498
SL-8 R/B                
1 20775U 90078B   20311.53091489  .00002523  00000-0  11927-3 0  9996
2 20775  82.9240 109.4370 0572673 114.3331 251.8746 14.34911091526119
SL-8 R/B                
1 21088U 91006B   20311.57083559  .00000008  00000-0 -76325-5 0  9991
2 21088  82.9439 179.5678 0023753  92.8117 329.6548 13.77148365495771
OKEAN-3                 
1 21397U 91039A   20311.53672243  .00000286  00000-0  24928-4 0  9998
2 21397  82.5248  41.6348 0019032  57.2308 303.0742 14.92981560573468
COSMOS 2151             
1 21422U 91042A   20311.55663928  .00000175  00000-0  14608-4 0  9994
2 21422  82.4985 147.6632 0015482 115.7209 244.5611 14.92170015572077
SL-14 R/B               
1 21423U 91042B   20311.52903494  .00000092  00000-0  91311-5 0  9992
2 21423  82.4952 244.1040 0018310 149.5017 210.7265 14.79803329564676
ERS-1                   
1 21574U 91050A   20311.45597519  .00000038  00000-0  27259-4 0  9996
2 21574  98.6159 264.9759 0032137 223.7016 136.1625 14.37765862535509
ARIANE 40 R/B           
1 21610U 91050F   20311.47298271  .00000034  00000-0  24205-4 0  9996
2 21610  98.4514  19.1933 0003292 174.0999 196.5255 14.40919774538436
INTERCOSMOS 25          
1 21819U 91086A   20311.54138191  .00000585  00000-0  11914-3 0  9991
2 21819  82.5942  41.2273 1514827 329.3094  22.7235 12.05158948261407
SL-8 R/B                
1 21876U 92008B   20311.43574090  .00000091  00000-0  78214-4 0  9998
2 21876  82.9244 276.8766 0034788 175.1707 297.6671 13.75666657441396
SL-8 R/B                
1 21938U 92020B   20311.62076421  .00000102  00000-0  90682-4 0  9993
2 21938  82.9294 161.0340 0028897 339.2967  73.1965 13.75282112433213
COSMOS 2219             
1 22219U 92076A   20311.58655658 -.00000202  00000-0 -81796-4 0  9996
2 22219  71.0591 130.7984 0020848 295.0875  64.8084 14.13655471442907
SL-16 R/B               
1 22220U 92076B   20311.52633250 -.00000159  00000-0 -55575-4 0  9993
2 22220  71.0005 332.5117 0013321 196.7327 271.3457 14.16463258445798
COSMOS 2221             
1 22236U 92080A   20311.52034590  .00000236  00000-0  22970-4 0  9994
2 22236  82.5063 329.4123 0015983 205.2529 154.7909 14.87963390490408
SL-16 R/B               
1 22285U 92093B   20311.60011861 -.00000125  00000-0 -40035-4 0  9998
2 22285  71.0200 134.3068 0003489   4.8492 355.2663 14.15052919437446
COSMOS 2228             
1 22286U 92094A   20311.45175305  .00000267  00000-0  26202-4 0  9992
2 22286  82.5177 285.8742 0020398 333.6126  26.4050 14.88183751485565
SL-16 R/B               
1 22566U 93016B   20311.56400980  .00000204  00000-0  13001-3 0  9993
2 22566  71.0088 347.4480 0008755  39.2930 320.8826 14.14969236426431
COSMOS 2242             
1 22626U 93024A   20311.51053605  .00000236  00000-0  22973-4 0  9996
2 22626  82.5192 314.0097 0018136 333.8380  26.1919 14.88036713489985
SL-16 R/B               
1 22803U 93059B   20311.59339726 -.00000142  00000-0 -46609-4 0  9990
2 22803  70.9875 159.7200 0019301 296.2337  63.6803 14.16829651403436
ARIANE 40 R/B           
1 22830U 93061H   20311.40732201 -.00000014  00000-0  11828-4 0  9990
2 22830  98.7479   1.7988 0009907 265.2614  94.7437 14.31458894415130
COSMOS 2278             
1 23087U 94023A   20311.38915582 -.00000165  00000-0 -62467-4 0  9999
2 23087  71.0538 290.9814 0006564 137.3345 222.8289 14.13819207369250
SL-16 R/B               
1 23088U 94023B   20311.45428351  .00000306  00000-0  18384-3 0  9994
2 23088  71.0009 203.0698 0003316 341.5038  18.5963 14.14686745370395
SL-16 R/B               
1 23343U 94074B   20311.60126397  .00000030  00000-0  11557-4 0  9996
2 23343  97.9811   3.2087 0007995  59.1865  62.3431 14.76843848399391
SL-16 R/B               
1 23405U 94077B   20311.55513711  .00000046  00000-0  48264-4 0  9994
2 23405  70.9794 131.6793 0004767 255.2989 104.7606 14.15223717340460
ERS-2                   
1 23560U 95021A   20311.57847236  .00001175  00000-0  53195-4 0  9993
2 23560  98.5541 124.6766 0004379  58.4212 301.7448 15.23392110363755
ARIANE 40+ R/B          
1 23561U 95021B   20311.61904236  .00000039  00000-0  28022-4 0  9992
2 23561  98.7081 352.8786 0006908 184.0601 288.1020 14.37990358339009
SL-16 R/B               
1 23705U 95058B   20311.52417132 -.00000026  00000-0  11329-4 0  9995
2 23705  71.0199 310.8682 0013857 219.2476 140.7643 14.15143091292073
SL-16 R/B               
1 24298U 96051B   20311.50371155 -.00000097  00000-0 -26391-4 0  9993
2 24298  70.8413 331.0777 0015190 152.4311 207.7618 14.12490984246411
ORBVIEW 2 (SEASTAR)     
1 24883U 97037A   20311.57537052  .00000053  00000-0  35295-4 0  9998
2 24883  98.6243  64.2451 0003134  61.3618 298.7881 14.33578201229333
SL-16 R/B               
1 25400U 98043G   20311.57338525 -.00000002  00000-0  17595-4 0  9994
2 25400  98.6179 244.9355 0008857 282.8965  77.1225 14.25463676161267
SL-16 R/B               
1 25407U 98045B   20311.49067195  .00000254  00000-0  15346-3 0  9995
2 25407  71.0108 319.0968 0005585 128.0161 232.1467 14.15830800151186
ISS (ZARYA)             
1 25544U 98067A   20311.70676696  .00049162  00000-0  88157-3 0  9998
2 25544  51.6472   3.2683 0001860  68.1764 291.9592 15.49429662254103
SL-8 R/B                
1 25723U 99022C   20311.34681070  .00040182  00000-0  20919-3 0  9996
2 25723  48.4110 301.7916 0004246 340.7848  19.2947 15.80411015200376
CZ-4B R/B               
1 25732U 99025C   20311.62460450 -.00000031  00000-0  70367-5 0  9991
2 25732  98.9316 341.2568 0037657 163.9663 304.7274 14.17682984111963
OKEAN-O                 
1 25860U 99039A   20311.60492177  .00000061  00000-0  16280-4 0  9992
2 25860  98.2061 333.0229 0001747 104.4777 255.6626 14.76687550146495
SL-16 R/B               
1 25861U 99039B   20311.59695278  .00000048  00000-0  14136-4 0  9991
2 25861  98.2105 316.5792 0016806  63.6584  84.2303 14.78598756148626
DELTA 2 R/B             
1 25876U 99041E   20311.47533899 -.00000144  00000-0  17392-4 0  9992
2 25876  51.7626 109.6756 0531428  38.3811 325.3708 14.04477528 88587
